{"type": "FeatureCollection", "features": [{"type": "Feature", "properties": {"norad_id": 25590, "name": "COSMOS 2361", "group": "musson", "lat": 24.87528293245847, "lon": -20.167014978845188, "alt_km": 1006.3447638947655, "timestamp": "2025-12-22T22:44:21.245263+00:00", "meta": {"OBJECT_NAME": "COSMOS 2361", "OBJECT_ID": "1998-076A", "EPOCH": "2025-12-22T09:11:38.989824", "MEAN_MOTION": 13.73218591, "ECCENTRICITY": 0.00302232, "INCLINATION": 82.9343, "RA_OF_ASC_NODE": 336.9536, "ARG_OF_PERICENTER": 237.6688, "MEAN_ANOMALY": 238.8499, "EPHEMERIS_TYPE": 0, "CLASSIFICATION_TYPE": "U", "NORAD_CAT_ID": 25590, "ELEMENT_SET_NO": 999, "REV_AT_EPOCH": 35243, "BSTAR": 4.4106891e-05, "MEAN_MOTION_DOT": 5.6e-07, "MEAN_MOTION_DDOT": 0}, "tle": {"line1": "1 25590U 98076A   25356.38309016  .00000056  00000+0  44107-4 0  9992", "line2": "2 25590  82.9343 336.9536 0030223 237.6688 238.8499 13.73218591352437"}}, "geometry": {"type": "Point", "coordinates": [-20.167014978845188, 24.87528293245847]}}, {"type": "Feature", "properties": {"norad_id": 26818, "name": "COSMOS 2378", "group": "musson", "lat": 48.14674446947392, "lon": 164.18877558918788, "alt_km": 963.1651161316213, "timestamp": "2025-12-22T22:44:21.245283+00:00", "meta": {"OBJECT_NAME": "COSMOS 2378", "OBJECT_ID": "2001-023A", "EPOCH": "2025-12-22T10:24:27.014400", "MEAN_MOTION": 13.74142737, "ECCENTRICITY": 0.00330042, "INCLINATION": 82.927, "RA_OF_ASC_NODE": 352.5364, "ARG_OF_PERICENTER": 177.6756, "MEAN_ANOMALY": 293.4774, "EPHEMERIS_TYPE": 0, "CLASSIFICATION_TYPE": "U", "NORAD_CAT_ID": 26818, "ELEMENT_SET_NO": 999, "REV_AT_EPOCH": 23056, "BSTAR": 2.5768837e-05, "MEAN_MOTION_DOT": 4e-07, "MEAN_MOTION_DDOT": 0}, "tle": {"line1": "1 26818U 01023A   25356.43364600  .00000040  00000+0  25769-4 0  9994", "line2": "2 26818  82.9270 352.5364 0033004 177.6756 293.4774 13.74142737230563"}}, "geometry": {"type": "Point", "coordinates": [164.18877558918788, 48.14674446947392]}}, {"type": "Feature", "properties": {"norad_id": 27436, "name": "COSMOS 2389", "group": "musson", "lat": 15.23824074329076, "lon": -58.64001784620726, "alt_km": 948.6512635198287, "timestamp": "2025-12-22T22:44:21.245296+00:00", "meta": {"OBJECT_NAME": "COSMOS 2389", "OBJECT_ID": "2002-026A", "EPOCH": "2025-12-22T03:30:33.446016", "MEAN_MOTION": 13.75155593, "ECCENTRICITY": 0.00472394, "INCLINATION": 82.9511, "RA_OF_ASC_NODE": 300.0214, "ARG_OF_PERICENTER": 35.0971, "MEAN_ANOMALY": 336.1418, "EPHEMERIS_TYPE": 0, "CLASSIFICATION_TYPE": "U", "NORAD_CAT_ID": 27436, "ELEMENT_SET_NO": 999, "REV_AT_EPOCH": 18278, "BSTAR": 4.9183719e-05, "MEAN_MOTION_DOT": 6.3e-07, "MEAN_MOTION_DDOT": 0}, "tle": {"line1": "1 27436U 02026A   25356.14622044  .00000063  00000+0  49184-4 0  9994", "line2": "2 27436  82.9511 300.0214 0047239  35.0971 336.1418 13.75155593182786"}}, "geometry": {"type": "Point", "coordinates": [-58.64001784620726, 15.23824074329076]}}, {"type": "Feature", "properties": {"norad_id": 27818, "name": "COSMOS 2398", "group": "musson", "lat": -46.53053950007775, "lon": 92.67898885802006, "alt_km": 1016.8401148808243, "timestamp": "2025-12-22T22:44:21.245308+00:00", "meta": {"OBJECT_NAME": "COSMOS 2398", "OBJECT_ID": "2003-023A", "EPOCH": "2025-12-22T06:26:14.999424", "MEAN_MOTION": 13.72386723, "ECCENTRICITY": 0.00327155, "INCLINATION": 82.9484, "RA_OF_ASC_NODE": 265.6769, "ARG_OF_PERICENTER": 86.4158, "MEAN_ANOMALY": 26.3083, "EPHEMERIS_TYPE": 0, "CLASSIFICATION_TYPE": "U", "NORAD_CAT_ID": 27818, "ELEMENT_SET_NO": 999, "REV_AT_EPOCH": 12947, "BSTAR": 7.2320183e-05, "MEAN_MOTION_DOT": 8.2e-07, "MEAN_MOTION_DDOT": 0}, "tle": {"line1": "1 27818U 03023A   25356.26822916  .00000082  00000+0  72320-4 0  9998", "line2": "2 27818  82.9484 265.6769 0032715  86.4158  26.3083 13.72386723129471"}}, "geometry": {"type": "Point", "coordinates": [92.67898885802006, -46.53053950007775]}}, {"type": "Feature", "properties": {"norad_id": 28380, "name": "COSMOS 2407", "group": "musson", "lat": -26.451185342309287, "lon": 28.85962020132369, "alt_km": 1011.958791566628, "timestamp": "2025-12-22T22:44:21.245319+00:00", "meta": {"OBJECT_NAME": "COSMOS 2407", "OBJECT_ID": "2004-028A", "EPOCH": "2025-12-22T13:18:15.732000", "MEAN_MOTION": 13.76314742, "ECCENTRICITY": 0.00398707, "INCLINATION": 82.9596, "RA_OF_ASC_NODE": 205.6259, "ARG_OF_PERICENTER": 28.0566, "MEAN_ANOMALY": 31.7987, "EPHEMERIS_TYPE": 0, "CLASSIFICATION_TYPE": "U", "NORAD_CAT_ID": 28380, "ELEMENT_SET_NO": 999, "REV_AT_EPOCH": 7558, "BSTAR": 4.1101222e-05, "MEAN_MOTION_DOT": 5.6e-07, "MEAN_MOTION_DDOT": 0}, "tle": {"line1": "1 28380U 04028A   25356.55434875  .00000056  00000+0  41101-4 0  9998", "line2": "2 28380  82.9596 205.6259 0039870  28.0566  31.7987 13.76314742 75583"}}, "geometry": {"type": "Point", "coordinates": [28.85962020132369, -26.451185342309287]}}, {"type": "Feature", "properties": {"norad_id": 28521, "name": "COSMOS 2414", "group": "musson", "lat": 4.091127889452295, "lon": -3.5663106344487923, "alt_km": 925.203723513866, "timestamp": "2025-12-22T22:44:21.245331+00:00", "meta": {"OBJECT_NAME": "COSMOS 2414", "OBJECT_ID": "2005-002A", "EPOCH": "2025-12-22T13:14:53.331360", "MEAN_MOTION": 13.87904272, "ECCENTRICITY": 0.0041348, "INCLINATION": 82.9488, "RA_OF_ASC_NODE": 177.24, "ARG_OF_PERICENTER": 112.4429, "MEAN_ANOMALY": 248.1122, "EPHEMERIS_TYPE": 0, "CLASSIFICATION_TYPE": "U", "NORAD_CAT_ID": 28521, "ELEMENT_SET_NO": 999, "REV_AT_EPOCH": 5931, "BSTAR": 4.3318984e-05, "MEAN_MOTION_DOT": 6.8e-07, "MEAN_MOTION_DDOT": 0}, "tle": {"line1": "1 28521U 05002A   25356.55200615  .00000068  00000+0  43319-4 0  9997", "line2": "2 28521  82.9488 177.2400 0041348 112.4429 248.1122 13.87904272 59314"}}, "geometry": {"type": "Point", "coordinates": [-3.5663106344487923, 4.091127889452295]}}, {"type": "Feature", "properties": {"norad_id": 32052, "name": "COSMOS 2429", "group": "musson", "lat": -21.12558650649127, "lon": 158.51205469573026, "alt_km": 1014.2541864420764, "timestamp": "2025-12-22T22:44:21.245342+00:00", "meta": {"OBJECT_NAME": "COSMOS 2429", "OBJECT_ID": "2007-038A", "EPOCH": "2025-12-22T09:32:24.633312", "MEAN_MOTION": 13.75150358, "ECCENTRICITY": 0.00386809, "INCLINATION": 82.9806, "RA_OF_ASC_NODE": 336.1888, "ARG_OF_PERICENTER": 11.33, "MEAN_ANOMALY": 348.8718, "EPHEMERIS_TYPE": 0, "CLASSIFICATION_TYPE": "U", "NORAD_CAT_ID": 32052, "ELEMENT_SET_NO": 999, "REV_AT_EPOCH": 91735, "BSTAR": 4.3704596e-05, "MEAN_MOTION_DOT": 5.7e-07, "MEAN_MOTION_DDOT": 0}, "tle": {"line1": "1 32052U 07038A   25356.39750733  .00000057  00000+0  43705-4 0  9992", "line2": "2 32052  82.9806 336.1888 0038680  11.3300 348.8718 13.75150358917359"}}, "geometry": {"type": "Point", "coordinates": [158.51205469573026, -21.12558650649127]}}, {"type": "Feature", "properties": {"norad_id": 35635, "name": "COSMOS 2454", "group": "musson", "lat": -59.65765363956594, "lon": 148.71179569910797, "alt_km": 940.183895899313, "timestamp": "2025-12-22T22:44:21.245353+00:00", "meta": {"OBJECT_NAME": "COSMOS 2454", "OBJECT_ID": "2009-039A", "EPOCH": "2025-12-22T14:43:57.247392", "MEAN_MOTION": 13.89929832, "ECCENTRICITY": 0.00201338, "INCLINATION": 82.9556, "RA_OF_ASC_NODE": 161.1597, "ARG_OF_PERICENTER": 47.1723, "MEAN_ANOMALY": 24.349, "EPHEMERIS_TYPE": 0, "CLASSIFICATION_TYPE": "U", "NORAD_CAT_ID": 35635, "ELEMENT_SET_NO": 999, "REV_AT_EPOCH": 83287, "BSTAR": 4.2635026e-05, "MEAN_MOTION_DOT": 6.8e-07, "MEAN_MOTION_DDOT": 0}, "tle": {"line1": "1 35635U 09039A   25356.61385703  .00000068  00000+0  42635-4 0  9994", "line2": "2 35635  82.9556 161.1597 0020133  47.1723  24.3490 13.89929832832876"}}, "geometry": {"type": "Point", "coordinates": [148.71179569910797, -59.65765363956594]}}, {"type": "Feature", "properties": {"norad_id": 36519, "name": "COSMOS 2463", "group": "musson", "lat": 29.219150849555238, "lon": 23.174038553002998, "alt_km": 1008.8933798837179, "timestamp": "2025-12-22T22:44:21.245363+00:00", "meta": {"OBJECT_NAME": "COSMOS 2463", "OBJECT_ID": "2010-017A", "EPOCH": "2025-12-22T14:24:24.038208", "MEAN_MOTION": 13.71649971, "ECCENTRICITY": 0.00347728, "INCLINATION": 82.9604, "RA_OF_ASC_NODE": 19.4662, "ARG_OF_PERICENTER": 259.7039, "MEAN_ANOMALY": 216.1133, "EPHEMERIS_TYPE": 0, "CLASSIFICATION_TYPE": "U", "NORAD_CAT_ID": 36519, "ELEMENT_SET_NO": 999, "REV_AT_EPOCH": 78372, "BSTAR": 3.4874667e-05, "MEAN_MOTION_DOT": 4.6e-07, "MEAN_MOTION_DDOT": 0}, "tle": {"line1": "1 36519U 10017A   25356.60027822  .00000046  00000+0  34875-4 0  9991", "line2": "2 36519  82.9604  19.4662 0034772 259.7039 216.1133 13.71649971783723"}}, "geometry": {"type": "Point", "coordinates": [23.174038553002998, 29.219150849555238]}}]}